IRIDIUM 106             
1 41917U 17003A   24171.68891592 -.00000051  00000+0 -25234-4 0  9993
2 41917  86.3968  32.5424 0002410  96.2667 263.8803 14.34217397388939
IRIDIUM 103             
1 41918U 17003B   24171.67622902  .00000058  00000+0  13728-4 0  9990
2 41918  86.3973  32.4497 0001827  91.9070 268.2335 14.34217962388955
IRIDIUM 109             
1 41919U 17003C   24171.68257173  .00000080  00000+0  21421-4 0  9990
2 41919  86.3975  32.4947 0001992  80.4210 279.7210 14.34216690388923
IRIDIUM 105             
1 41921U 17003E   24171.90072045  .00000332  00000+0  11143-3 0  9990
2 41921  86.3977   0.7806 0002030  91.4015 268.7414 14.34223261390894
IRIDIUM 104             
1 41922U 17003F   24171.66355371  .00000083  00000+0  22408-4 0  9990
2 41922  86.3973  32.4732 0001870  78.6494 281.4912 14.34212814388995
IRIDIUM 114             
1 41923U 17003G   24171.66988764  .00000124  00000+0  37224-4 0  9997
2 41923  86.3974  32.4564 0002351  91.7882 268.3583 14.34217940388973
IRIDIUM 108             
1 41924U 17003H   24171.90748119  .00000330  00000+0  11095-3 0  9999
2 41924  86.3970   0.7019 0002349  93.7244 266.4220 14.34216644390862
